[{"OBJECT_NAME":"IONOSFERA-M 3","OBJECT_ID":"2025-155A","EPOCH":"2026-03-06T21:35:52.143648","MEAN_MOTION":14.21465728,"ECCENTRICITY":0.0002011,"INCLINATION":98.592,"RA_OF_ASC_NODE":30.4425,"ARG_OF_PERICENTER":122.4156,"MEAN_ANOMALY":237.7217,"EPHEMERIS_TYPE":0,"CLASSIFICATION_TYPE":"U","NORAD_CAT_ID":64876,"ELEMENT_SET_NO":999,"REV_AT_EPOCH":3187,"BSTAR":7.3065e-5,"MEAN_MOTION_DOT":1.17e-6,"MEAN_MOTION_DDOT":0},{"OBJECT_NAME":"IONOSFERA-M 4","OBJECT_ID":"2025-155B","EPOCH":"2026-03-06T20:44:53.009952","MEAN_MOTION":14.21467417,"ECCENTRICITY":0.0001619,"INCLINATION":98.5915,"RA_OF_ASC_NODE":30.3266,"ARG_OF_PERICENTER":105.811,"MEAN_ANOMALY":254.3246,"EPHEMERIS_TYPE":0,"CLASSIFICATION_TYPE":"U","NORAD_CAT_ID":64877,"ELEMENT_SET_NO":999,"REV_AT_EPOCH":3186,"BSTAR":7.2694e-5,"MEAN_MOTION_DOT":1.16e-6,"MEAN_MOTION_DDOT":0},{"OBJECT_NAME":"MICROCARB","OBJECT_ID":"2025-156A","EPOCH":"2026-03-06T10:58:01.027776","MEAN_MOTION":14.72196569,"ECCENTRICITY":0.00153117,"INCLINATION":97.9891,"RA_OF_ASC_NODE":144.4152,"ARG_OF_PERICENTER":238.414,"MEAN_ANOMALY":121.5574,"EPHEMERIS_TYPE":0,"CLASSIFICATION_TYPE":"U","NORAD_CAT_ID":64899,"ELEMENT_SET_NO":999,"REV_AT_EPOCH":3285,"BSTAR":0.00014906324,"MEAN_MOTION_DOT":8.91e-6,"MEAN_MOTION_DDOT":0},{"OBJECT_NAME":"CO3D 3","OBJECT_ID":"2025-156B","EPOCH":"2026-03-06T19:59:48.814368","MEAN_MOTION":15.20209718,"ECCENTRICITY":0.0001576,"INCLINATION":97.4329,"RA_OF_ASC_NODE":145.9957,"ARG_OF_PERICENTER":151.4839,"MEAN_ANOMALY":208.6482,"EPHEMERIS_TYPE":0,"CLASSIFICATION_TYPE":"U","NORAD_CAT_ID":64900,"ELEMENT_SET_NO":999,"REV_AT_EPOCH":3398,"BSTAR":0.0004109,"MEAN_MOTION_DOT":8.84e-5,"MEAN_MOTION_DDOT":0},{"OBJECT_NAME":"CO3D 4","OBJECT_ID":"2025-156C","EPOCH":"2026-03-02T06:59:52.721952","MEAN_MOTION":15.20203154,"ECCENTRICITY":2.545e-5,"INCLINATION":97.4334,"RA_OF_ASC_NODE":141.5187,"ARG_OF_PERICENTER":280.3117,"MEAN_ANOMALY":79.8089,"EPHEMERIS_TYPE":0,"CLASSIFICATION_TYPE":"U","NORAD_CAT_ID":64901,"ELEMENT_SET_NO":999,"REV_AT_EPOCH":3329,"BSTAR":6.0250155e-5,"MEAN_MOTION_DOT":1.237e-5,"MEAN_MOTION_DDOT":0},{"OBJECT_NAME":"CO3D 2","OBJECT_ID":"2025-156D","EPOCH":"2026-03-06T20:46:48.175104","MEAN_MOTION":15.20200099,"ECCENTRICITY":0.0001328,"INCLINATION":97.4327,"RA_OF_ASC_NODE":145.9261,"ARG_OF_PERICENTER":122.2791,"MEAN_ANOMALY":237.8573,"EPHEMERIS_TYPE":0,"CLASSIFICATION_TYPE":"U","NORAD_CAT_ID":64902,"ELEMENT_SET_NO":999,"REV_AT_EPOCH":3398,"BSTAR":0.00027443,"MEAN_MOTION_DOT":5.878e-5,"MEAN_MOTION_DDOT":0},{"OBJECT_NAME":"CO3D 1","OBJECT_ID":"2025-156E","EPOCH":"2026-03-06T20:47:01.002048","MEAN_MOTION":15.20213274,"ECCENTRICITY":0.000124,"INCLINATION":97.433,"RA_OF_ASC_NODE":145.9266,"ARG_OF_PERICENTER":135.6976,"MEAN_ANOMALY":224.4359,"EPHEMERIS_TYPE":0,"CLASSIFICATION_TYPE":"U","NORAD_CAT_ID":64903,"ELEMENT_SET_NO":999,"REV_AT_EPOCH":3398,"BSTAR":0.00016945,"MEAN_MOTION_DOT":3.604e-5,"MEAN_MOTION_DDOT":0},{"OBJECT_NAME":"SENTINEL-6B","OBJECT_ID":"2025-264A","EPOCH":"2026-03-06T04:21:44.912448","MEAN_MOTION":12.80929396,"ECCENTRICITY":0.00079837,"INCLINATION":66.0448,"RA_OF_ASC_NODE":349.1234,"ARG_OF_PERICENTER":270.6918,"MEAN_ANOMALY":89.3183,"EPHEMERIS_TYPE":0,"CLASSIFICATION_TYPE":"U","NORAD_CAT_ID":66514,"ELEMENT_SET_NO":999,"REV_AT_EPOCH":1397,"BSTAR":8.5429385e-5,"MEAN_MOTION_DOT":-4.1e-7,"MEAN_MOTION_DDOT":0},{"OBJECT_NAME":"CSG-3","OBJECT_ID":"2026-001A","EPOCH":"2026-03-06T20:28:22.842624","MEAN_MOTION":14.82145601,"ECCENTRICITY":0.0001445,"INCLINATION":97.8863,"RA_OF_ASC_NODE":250.9317,"ARG_OF_PERICENTER":87.7208,"MEAN_ANOMALY":272.4171,"EPHEMERIS_TYPE":0,"CLASSIFICATION_TYPE":"U","NORAD_CAT_ID":67304,"ELEMENT_SET_NO":999,"REV_AT_EPOCH":930,"BSTAR":8.658e-5,"MEAN_MOTION_DOT":6.37e-6,"MEAN_MOTION_DDOT":0}]
