IONOSFERA-M 3           
1 64876U 25155A   26065.89990907  .00000117  00000+0  73065-4 0  9992
2 64876  98.5920  30.4425 0002011 122.4156 237.7217 14.21465728 31877
IONOSFERA-M 4           
1 64877U 25155B   26065.86450243  .00000116  00000+0  72694-4 0  9990
2 64877  98.5915  30.3266 0001619 105.8110 254.3246 14.21467417 31865
MICROCARB               
1 64899U 25156A   26065.45695634  .00000891  00000+0  14906-3 0  9996
2 64899  97.9891 144.4152 0015311 238.4140 121.5574 14.72196569 32858
CO3D 3                  
1 64900U 25156B   26065.83320387  .00008840  00000+0  41090-3 0  9997
2 64900  97.4329 145.9957 0001576 151.4839 208.6482 15.20209718 33983
CO3D 4                  
1 64901U 25156C   26061.29158243  .00001237  00000+0  60250-4 0  9997
2 64901  97.4334 141.5187 0000254 280.3117  79.8089 15.20203154 33293
CO3D 2                  
1 64902U 25156D   26065.86583536  .00005878  00000+0  27443-3 0  9993
2 64902  97.4327 145.9261 0001328 122.2791 237.8573 15.20200099 33987
CO3D 1                  
1 64903U 25156E   26065.86598382  .00003604  00000+0  16945-3 0  9999
2 64903  97.4330 145.9266 0001240 135.6976 224.4359 15.20213274 33986
SENTINEL-6B             
1 66514U 25264A   26065.18176982 -.00000041  00000+0  85429-4 0  9999
2 66514  66.0448 349.1234 0007983 270.6918  89.3183 12.80929396 13979
CSG-3                   
1 67304U 26001A   26065.85304216  .00000637  00000+0  86580-4 0  9993
2 67304  97.8863 250.9317 0001445  87.7208 272.4171 14.82145601  9304
